sat07851
1 07851U 72058X   20046.89907600  .00002330  00000-0  12472-3 0  9991
2 07851  98.6372 216.2420 0058757  44.8632 315.7324 15.14845849328775
